45434,ONEWEB-0018,2020,109.8,148.0,+,87.88,Active,1,LEO,Kazakhstan,UK,Commercial,Communications,Soyuz,1 45434U 20020L   25144.40955203  .00000366  00000+0  99582-3 0  9998,2 45434  87.8828  98.5548 0001980  83.1005 277.0348 13.11412097251678,13.11412097,0.000198,LEO
45435,ONEWEB-0083,2020,109.81,148.0,+,87.88,Active,1,LEO,Kazakhstan,UK,Commercial,Communications,Soyuz,1 45435U 20020M   25144.39940988  .00000600  00000+0  16576-2 0  9993,2 45435  87.8830  98.5409 0002091  83.0414 277.0952 13.11417149251714,13.11417149,0.0002091,LEO
45436,ONEWEB-0095,2020,109.8,148.0,+,87.88,Active,1,LEO,Kazakhstan,UK,Commercial,Communications,Soyuz,1 45436U 20020N   25144.39106984  .00000495  00000+0  13611-2 0  9993,2 45436  87.8828  98.5691 0002780  78.1398 282.0042 13.11418359251716,13.11418359,0.000278,LEO
45437,ONEWEB-0092,2020,109.8,148.0,+,87.88,Active,1,LEO,Kazakhstan,UK,Commercial,Communications,Soyuz,1 45437U 20020P   25144.36294097 -.00000488  00000+0 -14122-2 0  9996,2 45437  87.8828  98.5625 0002250  79.0513 281.0868 13.11419009251825,13.11419009,0.000225,LEO
45438,ONEWEB-0085,2020,109.8,148.0,+,87.88,Active,1,LEO,Kazakhstan,UK,Commercial,Communications,Soyuz,1 45438U 20020Q   25144.39253686  .00000496  00000+0  13645-2 0  9995,2 45438  87.8829  98.5677 0001982  81.4836 278.6517 13.11419490251715,13.1141949,0.0001982,LEO
45439,ONEWEB-0096,2020,109.8,148.0,+,87.88,Active,1,LEO,Kazakhstan,UK,Commercial,Communications,Soyuz,1 45439U 20020R   25144.32477924  .00000549  00000+0  15136-2 0  9998,2 45439  87.8829  98.5473 0001839  80.6238 279.5098 13.11419070251693,13.1141907,0.0001839,LEO
45440,ONEWEB-0037,2020,109.8,148.0,+,87.88,Active,1,LEO,Kazakhstan,UK,Commercial,Communications,Soyuz,1 45440U 20020S   25144.38160806  .00000132  00000+0  33737-3 0  9990,2 45440  87.8824  98.4992 0002116  80.3742 279.7625 13.11421742251733,13.11421742,0.0002116,LEO
45441,ONEWEB-0042,2020,109.8,148.0,+,87.88,Active,1,LEO,Kazakhstan,UK,Commercial,Communications,Soyuz,1 45441U 20020T   25144.39078736  .00000469  00000+0  12878-2 0  9997,2 45441  87.8829  98.5446 0001981  79.0728 281.0622 13.11418052251702,13.11418052,0.0001981,LEO
